[{"OBJECT_NAME":"STARLINK-34973","OBJECT_ID":"2025-179R","EPOCH":"2026-03-09T16:46:12.908928","MEAN_MOTION":15.05653681,"ECCENTRICITY":9.931e-5,"INCLINATION":97.6024,"RA_OF_ASC_NODE":113.0365,"ARG_OF_PERICENTER":114.3648,"MEAN_ANOMALY":245.7682,"EPHEMERIS_TYPE":0,"CLASSIFICATION_TYPE":"U","NORAD_CAT_ID":65250,"ELEMENT_SET_NO":999,"REV_AT_EPOCH":3181,"BSTAR":0.00019660226,"MEAN_MOTION_DOT":2.777e-5,"MEAN_MOTION_DDOT":0},{"OBJECT_NAME":"CZ-2C DEB","OBJECT_ID":"2014-059D","EPOCH":"2026-03-09T22:58:58.836288","MEAN_MOTION":14.93158478,"ECCENTRICITY":0.00543695,"INCLINATION":97.8294,"RA_OF_ASC_NODE":330.422,"ARG_OF_PERICENTER":95.2459,"MEAN_ANOMALY":265.4968,"EPHEMERIS_TYPE":0,"CLASSIFICATION_TYPE":"U","NORAD_CAT_ID":40264,"ELEMENT_SET_NO":999,"REV_AT_EPOCH":60833,"BSTAR":0.0017870547,"MEAN_MOTION_DOT":0.00019177,"MEAN_MOTION_DDOT":0}]
